1 00000U 00000000 97 6.96319444 0.0000000 0000000000 00000000 0 00000
2 00000 030.0001  90.0001 0000000  79.3373 360.0000 58.56928081000000